{
    "week": 295,
    "satellites": [
        {
            "Name": "GSAT0218 (GALILEO 22)",
            "Line1": "1 43058U 17079D   24334.28242253  .00000014  00000+0  00000+0 0  9991",
            "Line2": "2 43058  55.2692 237.0508 0003391 296.5178  63.5105  1.70473995 43350",
            "SatelliteNumber": "43058",
            "Classification": "U",
            "LaunchYear": "17",
            "LaunchNumber": "079",
            "PieceOfLaunch": "D",
            "EpochYear": "24",
            "EpochDay": 334.28242253,
            "FirstDerivativeMeanMotion": 1.4e-07,
            "SecondDerivativeMeanMotion": "00000+0",
            "BSTAR": "00000+0",
            "SetNumber": "999",
            "Inclination": 55.2692,
            "RAAN": 237.0508,
            "Eccentricity": 0.0003391,
            "ArgumentOfPerigee": 296.5178,
            "MeanAnomaly": 63.5105,
            "MeanMotion": 1.70473995,
            "RevolutionNumber": "4335"
        },
        {
            "Name": "GSAT0221 (GALILEO 25)",
            "Line1": "1 43564U 18060A   24333.59690372 -.00000071  00000+0  00000+0 0  9990",
            "Line2": "2 43564  57.2955 357.0402 0006196 274.8113  85.1747  1.70476053 39520",
            "SatelliteNumber": "43564",
            "Classification": "U",
            "LaunchYear": "18",
            "LaunchNumber": "060",
            "PieceOfLaunch": "A",
            "EpochYear": "24",
            "EpochDay": 333.59690372,
            "FirstDerivativeMeanMotion": -7.1e-07,
            "SecondDerivativeMeanMotion": "00000+0",
            "BSTAR": "00000+0",
            "SetNumber": "999",
            "Inclination": 57.2955,
            "RAAN": 357.0402,
            "Eccentricity": 0.0006196,
            "ArgumentOfPerigee": 274.8113,
            "MeanAnomaly": 85.1747,
            "MeanMotion": 1.70476053,
            "RevolutionNumber": "3952"
        },
        {
            "Name": "GSAT0222 (GALILEO 26)",
            "Line1": "1 43565U 18060B   24335.57540741 -.00000064  00000+0  00000+0 0  9997",
            "Line2": "2 43565  57.2993 356.9888 0005747 254.2314 105.7607  1.70475790 39605",
            "SatelliteNumber": "43565",
            "Classification": "U",
            "LaunchYear": "18",
            "LaunchNumber": "060",
            "PieceOfLaunch": "B",
            "EpochYear": "24",
            "EpochDay": 335.57540741,
            "FirstDerivativeMeanMotion": -6.4e-07,
            "SecondDerivativeMeanMotion": "00000+0",
            "BSTAR": "00000+0",
            "SetNumber": "999",
            "Inclination": 57.2993,
            "RAAN": 356.9888,
            "Eccentricity": 0.0005747,
            "ArgumentOfPerigee": 254.2314,
            "MeanAnomaly": 105.7607,
            "MeanMotion": 1.7047579,
            "RevolutionNumber": "3960"
        },
        {
            "Name": "GSAT0219 (GALILEO 23)",
            "Line1": "1 43566U 18060C   24335.21046677 -.00000065  00000+0  00000+0 0  9999",
            "Line2": "2 43566  57.2982 357.0006 0005280 278.8290  81.1672  1.70475971 39571",
            "SatelliteNumber": "43566",
            "Classification": "U",
            "LaunchYear": "18",
            "LaunchNumber": "060",
            "PieceOfLaunch": "C",
            "EpochYear": "24",
            "EpochDay": 335.21046677,
            "FirstDerivativeMeanMotion": -6.5e-07,
            "SecondDerivativeMeanMotion": "00000+0",
            "BSTAR": "00000+0",
            "SetNumber": "999",
            "Inclination": 57.2982,
            "RAAN": 357.0006,
            "Eccentricity": 0.000528,
            "ArgumentOfPerigee": 278.829,
            "MeanAnomaly": 81.1672,
            "MeanMotion": 1.70475971,
            "RevolutionNumber": "3957"
        },
        {
            "Name": "GSAT0220 (GALILEO 24)",
            "Line1": "1 43567U 18060D   24333.67145350 -.00000070  00000+0  00000+0 0  9992",
            "Line2": "2 43567  57.2979 357.0425 0005516 276.8987  83.0953  1.70476076 39532",
            "SatelliteNumber": "43567",
            "Classification": "U",
            "LaunchYear": "18",
            "LaunchNumber": "060",
            "PieceOfLaunch": "D",
            "EpochYear": "24",
            "EpochDay": 333.6714535,
            "FirstDerivativeMeanMotion": -7e-07,
            "SecondDerivativeMeanMotion": "00000+0",
            "BSTAR": "00000+0",
            "SetNumber": "999",
            "Inclination": 57.2979,
            "RAAN": 357.0425,
            "Eccentricity": 0.0005516,
            "ArgumentOfPerigee": 276.8987,
            "MeanAnomaly": 83.0953,
            "MeanMotion": 1.70476076,
            "RevolutionNumber": "3953"
        },
        {
            "Name": "GSAT0223 (GALILEO 27)",
            "Line1": "1 49809U 21116A   24332.93461484 -.00000073  00000+0  00000+0 0  9993",
            "Line2": "2 49809  57.2881 356.9556 0004431 251.4617 106.8500  1.70476214 18528",
            "SatelliteNumber": "49809",
            "Classification": "U",
            "LaunchYear": "21",
            "LaunchNumber": "116",
            "PieceOfLaunch": "A",
            "EpochYear": "24",
            "EpochDay": 332.93461484,
            "FirstDerivativeMeanMotion": -7.3e-07,
            "SecondDerivativeMeanMotion": "00000+0",
            "BSTAR": "00000+0",
            "SetNumber": "999",
            "Inclination": 57.2881,
            "RAAN": 356.9556,
            "Eccentricity": 0.0004431,
            "ArgumentOfPerigee": 251.4617,
            "MeanAnomaly": 106.85,
            "MeanMotion": 1.70476214,
            "RevolutionNumber": "1852"
        },
        {
            "Name": "GSAT0224 (GALILEO 28)",
            "Line1": "1 49810U 21116B   24333.34215819 -.00000072  00000+0  00000+0 0  9999",
            "Line2": "2 49810  57.2895 356.9432 0004152 246.2243 114.7352  1.70476341 18563",
            "SatelliteNumber": "49810",
            "Classification": "U",
            "LaunchYear": "21",
            "LaunchNumber": "116",
            "PieceOfLaunch": "B",
            "EpochYear": "24",
            "EpochDay": 333.34215819,
            "FirstDerivativeMeanMotion": -7.2e-07,
            "SecondDerivativeMeanMotion": "00000+0",
            "BSTAR": "00000+0",
            "SetNumber": "999",
            "Inclination": 57.2895,
            "RAAN": 356.9432,
            "Eccentricity": 0.0004152,
            "ArgumentOfPerigee": 246.2243,
            "MeanAnomaly": 114.7352,
            "MeanMotion": 1.70476341,
            "RevolutionNumber": "1856"
        },
        {
            "Name": "GSAT0225 (GALILEO 29)",
            "Line1": "1 59598U 24079A   24333.35730228  .00000051  00000+0  00000+0 0  9997",
            "Line2": "2 59598  54.7875 116.9137 0002840 167.7393 193.5568  1.70474981  3676",
            "SatelliteNumber": "59598",
            "Classification": "U",
            "LaunchYear": "24",
            "LaunchNumber": "079",
            "PieceOfLaunch": "A",
            "EpochYear": "24",
            "EpochDay": 333.35730228,
            "FirstDerivativeMeanMotion": 5.1e-07,
            "SecondDerivativeMeanMotion": "00000+0",
            "BSTAR": "00000+0",
            "SetNumber": "999",
            "Inclination": 54.7875,
            "RAAN": 116.9137,
            "Eccentricity": 0.000284,
            "ArgumentOfPerigee": 167.7393,
            "MeanAnomaly": 193.5568,
            "MeanMotion": 1.70474981,
            "RevolutionNumber": "367"
        },
        {
            "Name": "GSAT0227 (GALILEO 30)",
            "Line1": "1 59600U 24079C   24332.95190713  .00000051  00000+0  00000+0 0  9995",
            "Line2": "2 59600  54.7820 116.9254 0003630 119.1248 240.8862  1.70474806  3712",
            "SatelliteNumber": "59600",
            "Classification": "U",
            "LaunchYear": "24",
            "LaunchNumber": "079",
            "PieceOfLaunch": "C",
            "EpochYear": "24",
            "EpochDay": 332.95190713,
            "FirstDerivativeMeanMotion": 5.1e-07,
            "SecondDerivativeMeanMotion": "00000+0",
            "BSTAR": "00000+0",
            "SetNumber": "999",
            "Inclination": 54.782,
            "RAAN": 116.9254,
            "Eccentricity": 0.000363,
            "ArgumentOfPerigee": 119.1248,
            "MeanAnomaly": 240.8862,
            "MeanMotion": 1.70474806,
            "RevolutionNumber": "371"
        },
        {
            "Name": "GSAT0232 (GALILEO 32)",
            "Line1": "1 61182U 24167A   24321.21686440 -.00000004  00000+0  00000+0 0  9994",
            "Line2": "2 61182  55.3884 237.1378 0015743 276.0571  83.7985  1.73178105  1028",
            "SatelliteNumber": "61182",
            "Classification": "U",
            "LaunchYear": "24",
            "LaunchNumber": "167",
            "PieceOfLaunch": "A",
            "EpochYear": "24",
            "EpochDay": 321.2168644,
            "FirstDerivativeMeanMotion": -4e-08,
            "SecondDerivativeMeanMotion": "00000+0",
            "BSTAR": "00000+0",
            "SetNumber": "999",
            "Inclination": 55.3884,
            "RAAN": 237.1378,
            "Eccentricity": 0.0015743,
            "ArgumentOfPerigee": 276.0571,
            "MeanAnomaly": 83.7985,
            "MeanMotion": 1.73178105,
            "RevolutionNumber": "102"
        }
    ]
}